{
"type": "FeatureCollection",
"name": "nea_environment_points",
"crs": { "type": "name", "properties": { "name": "urn:ogc:def:crs:EPSG::3414" } },
"features": [
{ "type": "Feature", "properties": { "station_id": "S107", "T": 25.3, "RH": 92.2 }, "geometry": { "type": "Point", "coordinates": [ 42376.668866655483725, 32866.045473164405848 ] } },
{ "type": "Feature", "properties": { "station_id": "S24", "T": 24.9, "RH": 92.1 }, "geometry": { "type": "Point", "coordinates": [ 44613.247302534844493, 38870.406742046397994 ] } }
]
}
