{
"type": "FeatureCollection",
"name": "nea_environment_points_wgs84",
"crs": { "type": "name", "properties": { "name": "urn:ogc:def:crs:OGC:1.3:CRS84" } },
"features": [
{ "type": "Feature", "properties": { "station_id": "S109", "T": 29.4, "RH": 68.3 }, "geometry": { "type": "Point", "coordinates": [ 103.8492, 1.3764 ] } },
{ "type": "Feature", "properties": { "station_id": "S107", "T": 29.0, "RH": 75.9 }, "geometry": { "type": "Point", "coordinates": [ 103.9625, 1.3135 ] } },
{ "type": "Feature", "properties": { "station_id": "S44", "T": 28.0, "RH": 82.7 }, "geometry": { "type": "Point", "coordinates": [ 103.68166, 1.34583 ] } },
{ "type": "Feature", "properties": { "station_id": "S106", "T": 26.7, "RH": 94.1 }, "geometry": { "type": "Point", "coordinates": [ 103.9673, 1.4168 ] } },
{ "type": "Feature", "properties": { "station_id": "S111", "T": 28.9, "RH": 68.7 }, "geometry": { "type": "Point", "coordinates": [ 103.8365, 1.31055 ] } },
{ "type": "Feature", "properties": { "station_id": "S102", "T": 29.7, "RH": 79.0 }, "geometry": { "type": "Point", "coordinates": [ 103.768, 1.189 ] } },
{ "type": "Feature", "properties": { "station_id": "S115", "T": 29.7, "RH": 81.8 }, "geometry": { "type": "Point", "coordinates": [ 103.61843, 1.29377 ] } },
{ "type": "Feature", "properties": { "station_id": "S24", "T": 28.4, "RH": 72.1 }, "geometry": { "type": "Point", "coordinates": [ 103.9826, 1.3678 ] } }
]
}
