{
"type": "FeatureCollection",
"name": "nea_environment_points",
"crs": { "type": "name", "properties": { "name": "urn:ogc:def:crs:EPSG::3414" } },
"features": [
{ "type": "Feature", "properties": { "station_id": "S107", "T": 29.3, "RH": 72.9 }, "geometry": { "type": "Point", "coordinates": [ 42376.668866655483725, 32866.045473164405848 ] } },
{ "type": "Feature", "properties": { "station_id": "S43", "T": 30.3, "RH": 64.0 }, "geometry": { "type": "Point", "coordinates": [ 34063.197735805471893, 35784.918010658511776 ] } },
{ "type": "Feature", "properties": { "station_id": "S44", "T": 28.6, "RH": 77.6 }, "geometry": { "type": "Point", "coordinates": [ 11122.050410726111295, 36441.084454908545013 ] } },
{ "type": "Feature", "properties": { "station_id": "S111", "T": 29.2, "RH": 66.4 }, "geometry": { "type": "Point", "coordinates": [ 28354.062126312273904, 32539.478435395925771 ] } },
{ "type": "Feature", "properties": { "station_id": "S102", "T": 29.9, "RH": 76.3 }, "geometry": { "type": "Point", "coordinates": [ 20730.322490422415285, 19099.196756778685085 ] } },
{ "type": "Feature", "properties": { "station_id": "S24", "T": 28.7, "RH": 71.4 }, "geometry": { "type": "Point", "coordinates": [ 44613.247302534844493, 38870.406742046397994 ] } }
]
}
